STARLINK-33604          
1 63070U 25035U   26068.28748437  .00025334  00000+0  92728-3 0  9993
2 63070  42.9968 149.7484 0001054 219.7112 140.3663 15.27569526 59652
2025-155V               
1 64895U 25155V   26068.85787115  .00013705  00000+0  51002-3 0  9990
2 64895  97.4485  37.2490 0008035 152.8264 207.3397 15.27583301 65579
